NORAD_CAT_ID,OBJECT_NAME,OBJECT_TYPE,EPOCH,MEAN_MOTION,ECCENTRICITY,INCLINATION,RA_OF_ASC_NODE,ARG_OF_PERICENTER,MEAN_ANOMALY,BSTAR,MEAN_MOTION_DOT,MEAN_MOTION_DDOT,TLE_LINE0,TLE_LINE1,TLE_LINE2,SEMIMAJOR_AXIS,PERIOD,APOGEE,PERIGEE,DECAYED
54008.0,STARLINK-5145,PAYLOAD,2024-02-07 03:57:32,15.08840206,0.0001604,53.2204,22.3896,100.5153,259.602,2.2331e-05,6.7e-07,0.0,0 STARLINK-5145,1 54008U 22125AW  24038.16495937  .00000067  00000-0  22331-4 0  9998,2 54008  53.2204  22.3896 0001604 100.5153 259.6020 15.08840206 74695,6917.88,95.438,540.854,538.635,0.0
54008.0,STARLINK-5145,PAYLOAD,2024-02-08 02:12:56,15.08834856,0.0001517,53.2208,18.2205,101.802,258.3142,-4.2106e-05,-9.58e-06,0.0,0 STARLINK-5145,1 54008U 22125AW  24039.09232556 -.00000958  00000-0 -42106-4 0  9990,2 54008  53.2208  18.2205 0001517 101.8020 258.3142 15.08834856 74838,6917.896,95.438,540.811,538.712,0.0
54008.0,STARLINK-5145,PAYLOAD,2024-02-08 08:34:29,15.08839,0.000145,53.2196,17.0271,83.3802,276.7356,-8.9767e-06,-4.31e-06,0.0,0 STARLINK-5145,1 54008U 22125AW  24039.35728289 -.00000431  00000-0 -89767-5 0  9993,2 54008  53.2196  17.0271 0001450  83.3802 276.7356 15.08839000 74828,6917.883,95.438,540.752,538.745,0.0
54008.0,STARLINK-5145,PAYLOAD,2024-02-09 03:39:06,15.08840776,0.0001286,53.2176,13.4578,84.774,275.3399,4.2215e-06,-2.21e-06,0.0,0 STARLINK-5145,1 54008U 22125AW  24040.15216225 -.00000221  00000-0  42215-5 0  9998,2 54008  53.2176  13.4578 0001286  84.7740 275.3399 15.08840776 74991,6917.878,95.438,540.633,538.853,0.0
54008.0,STARLINK-5145,PAYLOAD,2024-02-09 05:14:29,15.08847391,0.0001335,53.2187,13.16,88.1748,271.9397,0.00015786,2.226e-05,0.0,0 STARLINK-5145,1 54008U 22125AW  24040.21839405  .00002226  00000-0  15786-3 0  9993,2 54008  53.2187  13.1600 0001335  88.1748 271.9397 15.08847391 75000,6917.858,95.437,540.646,538.799,0.0
54008.0,STARLINK-5145,PAYLOAD,2024-02-10 03:29:54,15.08834958,0.00014,53.2179,8.9965,80.486,279.6291,4.5388e-05,4.34e-06,0.0,0 STARLINK-5145,1 54008U 22125AW  24041.14576830  .00000434  00000-0  45388-4 0  9997,2 54008  53.2179   8.9965 0001400  80.4860 279.6291 15.08834958 75148,6917.896,95.438,540.729,538.792,0.0
54008.0,STARLINK-5145,PAYLOAD,2024-02-10 05:05:17,15.08836561,0.0001477,53.2182,8.6992,71.9041,288.2112,6.0571e-05,6.76e-06,0.0,0 STARLINK-5145,1 54008U 22125AW  24041.21200794  .00000676  00000-0  60571-4 0  9997,2 54008  53.2182   8.6992 0001477  71.9041 288.2112 15.08836561 75105,6917.891,95.438,540.778,538.734,0.0
54008.0,STARLINK-5145,PAYLOAD,2024-02-11 06:31:27,15.08851523,0.0001566,53.2193,3.9437,83.4069,276.7102,1.7635e-05,-7e-08,0.0,0 STARLINK-5145,1 54008U 22125AW  24042.27184101 -.00000007  00000-0  17635-4 0  9999,2 54008  53.2193   3.9437 0001566  83.4069 276.7102 15.08851523 75315,6917.845,95.437,540.794,538.627,0.0
54008.0,STARLINK-5145,PAYLOAD,2024-02-12 03:11:28,15.08840191,0.0001773,53.2189,0.0751,80.6767,279.4426,4.1292e-05,3.69e-06,0.0,0 STARLINK-5145,1 54008U 22125AW  24043.13296834  .00000369  00000-0  41292-4 0  9998,2 54008  53.2189   0.0751 0001773  80.6767 279.4426 15.08840191 75443,6917.88,95.438,540.971,538.518,0.0
54008.0,STARLINK-5145,PAYLOAD,2024-02-12 06:22:13,15.08854173,0.0001747,53.2197,359.4814,69.8666,290.2514,0.00017824,2.551e-05,0.0,0 STARLINK-5145,1 54008U 22125AW  24043.26543715  .00002551  00000-0  17824-3 0  9993,2 54008  53.2197 359.4814 0001747  69.8666 290.2514 15.08854173 75467,6917.837,95.437,540.911,538.494,0.0
54008.0,STARLINK-5145,PAYLOAD,2024-02-12 20:40:43,15.0884229,0.0001254,53.2197,356.8055,101.2496,258.8637,-6.7071e-05,-1.355e-05,0.0,0 STARLINK-5145,1 54008U 22125AW  24043.86160913 -.00001355  00000-0 -67071-4 0  9997,2 54008  53.2197 356.8055 0001254 101.2496 258.8637 15.08842290 75553,6917.873,95.437,540.606,538.871,0.0
54008.0,STARLINK-5145,PAYLOAD,2024-02-13 06:13:00,15.08852119,0.0001683,53.2197,355.0197,117.5913,242.525,1.5656e-05,-3.9e-07,0.0,0 STARLINK-5145,1 54008U 22125AW  24044.25903789 -.00000039  00000-0  15656-4 0  9996,2 54008  53.2197 355.0197 0001683 117.5913 242.5250 15.08852119 75610,6917.843,95.437,540.873,538.544,0.0
54008.0,STARLINK-5145,PAYLOAD,2024-02-13 14:09:57,15.08834643,0.000135,53.2205,353.5324,96.9742,263.1403,-2.1363e-05,-6.28e-06,0.0,0 STARLINK-5145,1 54008U 22125AW  24044.59025128 -.00000628  00000-0 -21363-4 0  9992,2 54008  53.2205 353.5324 0001350  96.9742 263.1403 15.08834643 75617,6917.897,95.438,540.696,538.828,0.0
54008.0,STARLINK-5145,PAYLOAD,2024-02-14 02:53:02,15.08844929,0.0001011,53.2183,351.1555,89.4767,270.6341,-7.8935e-05,-1.544e-05,0.0,0 STARLINK-5145,1 54008U 22125AW  24045.12016744 -.00001544  00000-0 -78935-4 0  9991,2 54008  53.2183 351.1555 0001011  89.4767 270.6341 15.08844929 75746,6917.865,95.437,540.43,539.031,0.0
54008.0,STARLINK-5145,PAYLOAD,2024-02-14 06:03:47,15.08860154,0.0001297,53.2193,350.56,86.2267,273.8873,5.3903e-05,5.71e-06,0.0,0 STARLINK-5145,1 54008U 22125AW  24045.25263359  .00000571  00000-0  53903-4 0  9996,2 54008  53.2193 350.5600 0001297  86.2267 273.8873 15.08860154 75762,6917.819,95.436,540.581,538.787,0.0
54008.0,STARLINK-5145,PAYLOAD,2024-02-14 20:22:17,15.08835489,0.0001113,53.2193,347.8827,106.9534,253.158,-6.5044e-05,-1.323e-05,0.0,0 STARLINK-5145,1 54008U 22125AW  24045.84881357 -.00001323  00000-0 -65044-4 0  9992,2 54008  53.2193 347.8827 0001113 106.9534 253.1580 15.08835489 75855,6917.894,95.438,540.529,538.989,0.0
54008.0,STARLINK-5145,PAYLOAD,2024-02-15 02:43:49,15.08842805,0.0001121,53.2182,346.6934,109.4054,250.706,4.8445e-06,-2.11e-06,0.0,0 STARLINK-5145,1 54008U 22125AW  24046.11376686 -.00000211  00000-0  48445-5 0  9998,2 54008  53.2182 346.6934 0001121 109.4054 250.7060 15.08842805 75893,6917.872,95.437,540.512,538.961,0.0
54008.0,STARLINK-5145,PAYLOAD,2024-02-15 05:54:35,15.08843845,0.0001176,53.2186,346.0983,111.6238,248.4879,1.4412e-05,-5.8e-07,0.0,0 STARLINK-5145,1 54008U 22125AW  24046.24624575 -.00000058  00000-0  14412-4 0  9990,2 54008  53.2186 346.0983 0001176 111.6238 248.4879 15.08843845 75868,6917.869,95.437,540.547,538.92,0.0
54008.0,STARLINK-5145,PAYLOAD,2024-02-15 20:13:04,15.08829797,0.0001064,53.2185,343.4247,100.5636,259.5476,1.351e-05,-7.3e-07,0.0,0 STARLINK-5145,1 54008U 22125AW  24046.84241795 -.00000073  00000-0  13510-4 0  9990,2 54008  53.2185 343.4247 0001064 100.5636 259.5476 15.08829797 76009,6917.912,95.438,540.513,539.041,0.0
54008.0,STARLINK-5145,PAYLOAD,2024-02-16 02:34:36,15.08843171,0.0001349,53.2186,342.2343,94.7746,265.34,-4.4192e-05,-9.91e-06,0.0,0 STARLINK-5145,1 54008U 22125AW  24047.10737255 -.00000991  00000-0 -44192-4 0  9991,2 54008  53.2186 342.2343 0001349  94.7746 265.3400 15.08843171 76044,6917.871,95.437,540.669,538.802,0.0
54008.0,STARLINK-5145,PAYLOAD,2024-02-16 12:06:55,15.08845839,0.0001321,53.2184,340.4517,84.5192,275.595,-2.4454e-05,-6.77e-06,0.0,0 STARLINK-5145,1 54008U 22125AW  24047.50481008 -.00000677  00000-0 -24454-4 0  9997,2 54008  53.2184 340.4517 0001321  84.5192 275.5950 15.08845839 76054,6917.863,95.437,540.641,538.814,0.0
54008.0,STARLINK-5145,PAYLOAD,2024-02-16 20:03:52,15.08832401,0.0001348,53.2194,338.9667,95.5116,264.603,6.054e-05,6.76e-06,0.0,0 STARLINK-5145,1 54008U 22125AW  24047.83601923  .00000676  00000-0  60540-4 0  9996,2 54008  53.2194 338.9667 0001348  95.5116 264.6030 15.08832401 76150,6917.904,95.438,540.701,538.836,0.0
54008.0,STARLINK-5145,PAYLOAD,2024-02-17 04:00:46,15.08850273,0.0001294,53.2178,337.4748,102.5703,257.5434,0.00015245,2.14e-05,0.0,0 STARLINK-5145,1 54008U 22125AW  24048.16720384  .00002140  00000-0  15245-3 0  9995,2 54008  53.2178 337.4748 0001294 102.5703 257.5434 15.08850273 76209,6917.849,95.437,540.609,538.819,0.0
54008.0,STARLINK-5145,PAYLOAD,2024-02-17 11:57:42,15.08851719,0.0001114,53.2185,335.9908,81.2417,278.8701,9.4631e-05,1.219e-05,0.0,0 STARLINK-5145,1 54008U 22125AW  24048.49840413  .00001219  00000-0  94631-4 0  9990,2 54008  53.2185 335.9908 0001114  81.2417 278.8701 15.08851719 76203,6917.845,95.437,540.48,538.939,0.0
54008.0,STARLINK-5145,PAYLOAD,2024-02-17 19:54:38,15.08837207,0.0001845,53.2204,334.5082,90.717,269.4034,7.7067e-05,9.39e-06,0.0,0 STARLINK-5145,1 54008U 22125AW  24048.82961785  .00000939  00000-0  77067-4 0  9995,2 54008  53.2204 334.5082 0001845  90.7170 269.4034 15.08837207 76307,6917.889,95.438,541.03,538.478,0.0
54008.0,STARLINK-5145,PAYLOAD,2024-02-18 11:48:30,15.08838883,0.0001684,53.2186,331.5307,80.1643,279.954,1.9208e-05,1.8e-07,0.0,0 STARLINK-5145,1 54008U 22125AW  24049.49201806  .00000018  00000-0  19208-4 0  9991,2 54008  53.2186 331.5307 0001684  80.1643 279.9540 15.08838883 76356,6917.884,95.438,540.914,538.584,0.0
54008.0,STARLINK-5145,PAYLOAD,2024-02-18 22:56:12,15.08835879,0.0001474,53.2181,329.4505,87.463,272.6531,8.3916e-05,1.048e-05,0.0,0 STARLINK-5145,1 54008U 22125AW  24049.95569779  .00001048  00000-0  83916-4 0  9999,2 54008  53.2181 329.4505 0001474  87.4630 272.6531 15.08835879 76420,6917.893,95.438,540.778,538.738,0.0
54008.0,STARLINK-5145,PAYLOAD,2024-02-19 03:42:21,15.08848291,0.0001573,53.2188,328.5558,91.9712,268.146,1.1913e-05,-9.8e-07,0.0,0 STARLINK-5145,1 54008U 22125AW  24050.15441173 -.00000098  00000-0  11913-4 0  9993,2 54008  53.2188 328.5558 0001573  91.9712 268.1460 15.08848291 76508,6917.855,95.437,540.808,538.632,0.0
54008.0,STARLINK-5145,PAYLOAD,2024-02-19 11:39:17,15.08838685,0.0001948,53.2195,327.0702,71.3597,288.7607,-5.1582e-05,-1.109e-05,0.0,0 STARLINK-5145,1 54008U 22125AW  24050.48562101 -.00001109  00000-0 -51582-4 0  9995,2 54008  53.2195 327.0702 0001948  71.3597 288.7607 15.08838685 76552,6917.884,95.438,541.097,538.402,0.0
54008.0,STARLINK-5145,PAYLOAD,2024-02-19 22:47:00,15.08824272,0.0001611,53.2188,324.9883,77.2982,282.819,1.4189e-05,-6.2e-07,0.0,0 STARLINK-5145,1 54008U 22125AW  24050.94930931 -.00000062  00000-0  14189-4 0  9994,2 54008  53.2188 324.9883 0001611  77.2982 282.8190 15.08824272 76571,6917.928,95.439,540.908,538.679,0.0
